CCSDS_OMM_VERS = 2.0
CREATION_DATE  = 
ORIGINATOR     = 

OBJECT_NAME    = UNKNOWN
OBJECT_ID      = 
CENTER_NAME    = EARTH
REF_FRAME      = TEME
TIME_SYSTEM    = UTC
MEAN_ELEMENT_THEORY = SGP/SGP4

EPOCH          = 2026-01-08T16:20:04.886304
MEAN_MOTION    = 13.00418883
ECCENTRICITY   = .0028007
INCLINATION    = 90.2505
RA_OF_ASC_NODE = 1.8451
ARG_OF_PERICENTER = 78.1458
MEAN_ANOMALY   = 282.2803

EPHEMERIS_TYPE = 0
CLASSIFICATION_TYPE = U
NORAD_CAT_ID   = 270223
ELEMENT_SET_NO = 999
REV_AT_EPOCH   = 28612
BSTAR          = -.39059145E-3
MEAN_MOTION_DOT = -.111E-5
MEAN_MOTION_DDOT = 0

CCSDS_OMM_VERS = 2.0
CREATION_DATE  = 
ORIGINATOR     = 

OBJECT_NAME    = UNKNOWN
OBJECT_ID      = 
CENTER_NAME    = EARTH
REF_FRAME      = TEME
TIME_SYSTEM    = UTC
MEAN_ELEMENT_THEORY = SGP/SGP4

EPOCH          = 2026-01-08T16:55:04.062432
MEAN_MOTION    = 13.39733742
ECCENTRICITY   = .05281232
INCLINATION    = 73.1503
RA_OF_ASC_NODE = 9.0758
ARG_OF_PERICENTER = 176.1543
MEAN_ANOMALY   = 184.3876

EPHEMERIS_TYPE = 0
CLASSIFICATION_TYPE = U
NORAD_CAT_ID   = 270224
ELEMENT_SET_NO = 999
REV_AT_EPOCH   = 29166
BSTAR          = .19227277E-2
MEAN_MOTION_DOT = .2341E-4
MEAN_MOTION_DDOT = 0

CCSDS_OMM_VERS = 2.0
CREATION_DATE  = 
ORIGINATOR     = 

OBJECT_NAME    = UNKNOWN
OBJECT_ID      = 
CENTER_NAME    = EARTH
REF_FRAME      = TEME
TIME_SYSTEM    = UTC
MEAN_ELEMENT_THEORY = SGP/SGP4

EPOCH          = 2025-12-14T23:50:31.405056
MEAN_MOTION    = 11.67016832
ECCENTRICITY   = .0399241
INCLINATION    = 101.2677
RA_OF_ASC_NODE = 92.0726
ARG_OF_PERICENTER = 188.5545
MEAN_ANOMALY   = 170.8525

EPHEMERIS_TYPE = 0
CLASSIFICATION_TYPE = U
NORAD_CAT_ID   = 270226
ELEMENT_SET_NO = 999
REV_AT_EPOCH   = 25533
BSTAR          = .84335715E-3
MEAN_MOTION_DOT = .24E-6
MEAN_MOTION_DDOT = 0

CCSDS_OMM_VERS = 2.0
CREATION_DATE  = 
ORIGINATOR     = 

OBJECT_NAME    = UNKNOWN
OBJECT_ID      = 
CENTER_NAME    = EARTH
REF_FRAME      = TEME
TIME_SYSTEM    = UTC
MEAN_ELEMENT_THEORY = SGP/SGP4

EPOCH          = 2026-01-11T12:29:38.466240
MEAN_MOTION    = 12.24560369
ECCENTRICITY   = .01405321
INCLINATION    = 74.0114
RA_OF_ASC_NODE = 301.4438
ARG_OF_PERICENTER = 311.8915
MEAN_ANOMALY   = 47.0202

EPHEMERIS_TYPE = 0
CLASSIFICATION_TYPE = U
NORAD_CAT_ID   = 270228
ELEMENT_SET_NO = 999
REV_AT_EPOCH   = 26943
BSTAR          = .17081306E-3
MEAN_MOTION_DOT = .4E-7
MEAN_MOTION_DDOT = 0

CCSDS_OMM_VERS = 2.0
CREATION_DATE  = 
ORIGINATOR     = 

OBJECT_NAME    = UNKNOWN
OBJECT_ID      = 
CENTER_NAME    = EARTH
REF_FRAME      = TEME
TIME_SYSTEM    = UTC
MEAN_ELEMENT_THEORY = SGP/SGP4

EPOCH          = 2026-01-11T01:01:29.580672
MEAN_MOTION    = 13.91131758
ECCENTRICITY   = .01434905
INCLINATION    = 98.9384
RA_OF_ASC_NODE = 297.1783
ARG_OF_PERICENTER = 327.2629
MEAN_ANOMALY   = 31.9699

EPHEMERIS_TYPE = 0
CLASSIFICATION_TYPE = U
NORAD_CAT_ID   = 270229
ELEMENT_SET_NO = 999
REV_AT_EPOCH   = 30607
BSTAR          = .58774277E-3
MEAN_MOTION_DOT = .76E-5
MEAN_MOTION_DDOT = 0

CCSDS_OMM_VERS = 2.0
CREATION_DATE  = 
ORIGINATOR     = 

OBJECT_NAME    = UNKNOWN
OBJECT_ID      = 
CENTER_NAME    = EARTH
REF_FRAME      = TEME
TIME_SYSTEM    = UTC
MEAN_ELEMENT_THEORY = SGP/SGP4

EPOCH          = 2026-01-11T03:55:34.368672
MEAN_MOTION    = 12.20728783
ECCENTRICITY   = .03370046
INCLINATION    = 103.0307
RA_OF_ASC_NODE = 342.8134
ARG_OF_PERICENTER = 7.0401
MEAN_ANOMALY   = 353.5218

EPHEMERIS_TYPE = 0
CLASSIFICATION_TYPE = U
NORAD_CAT_ID   = 270230
ELEMENT_SET_NO = 999
REV_AT_EPOCH   = 26670
BSTAR          = .30338078E-1
MEAN_MOTION_DOT = .3751E-4
MEAN_MOTION_DDOT = 0

CCSDS_OMM_VERS = 2.0
CREATION_DATE  = 
ORIGINATOR     = 

OBJECT_NAME    = UNKNOWN
OBJECT_ID      = 
CENTER_NAME    = EARTH
REF_FRAME      = TEME
TIME_SYSTEM    = UTC
MEAN_ELEMENT_THEORY = SGP/SGP4

EPOCH          = 2026-01-04T08:22:23.595744
MEAN_MOTION    = 12.91841210
ECCENTRICITY   = .07057959
INCLINATION    = 72.9658
RA_OF_ASC_NODE = 38.2220
ARG_OF_PERICENTER = 344.2641
MEAN_ANOMALY   = 13.7454

EPHEMERIS_TYPE = 0
CLASSIFICATION_TYPE = U
NORAD_CAT_ID   = 270232
ELEMENT_SET_NO = 999
REV_AT_EPOCH   = 28091
BSTAR          = .53280718E-2
MEAN_MOTION_DOT = .4396E-4
MEAN_MOTION_DDOT = 0

CCSDS_OMM_VERS = 2.0
CREATION_DATE  = 
ORIGINATOR     = 

OBJECT_NAME    = UNKNOWN
OBJECT_ID      = 
CENTER_NAME    = EARTH
REF_FRAME      = TEME
TIME_SYSTEM    = UTC
MEAN_ELEMENT_THEORY = SGP/SGP4

EPOCH          = 2026-01-11T18:02:31.424640
MEAN_MOTION    = 14.38424584
ECCENTRICITY   = .0031188
INCLINATION    = 98.6241
RA_OF_ASC_NODE = 17.4105
ARG_OF_PERICENTER = 279.5578
MEAN_ANOMALY   = 80.2085

EPHEMERIS_TYPE = 0
CLASSIFICATION_TYPE = U
NORAD_CAT_ID   = 270233
ELEMENT_SET_NO = 999
REV_AT_EPOCH   = 31280
BSTAR          = .16617032E-3
MEAN_MOTION_DOT = .464E-5
MEAN_MOTION_DDOT = 0

CCSDS_OMM_VERS = 2.0
CREATION_DATE  = 
ORIGINATOR     = 

OBJECT_NAME    = UNKNOWN
OBJECT_ID      = 
CENTER_NAME    = EARTH
REF_FRAME      = TEME
TIME_SYSTEM    = UTC
MEAN_ELEMENT_THEORY = SGP/SGP4

EPOCH          = 2025-12-20T01:36:17.466912
MEAN_MOTION    = 13.59100942
ECCENTRICITY   = .01421274
INCLINATION    = 82.9339
RA_OF_ASC_NODE = 121.7740
ARG_OF_PERICENTER = 58.4509
MEAN_ANOMALY   = 303.0427

EPHEMERIS_TYPE = 0
CLASSIFICATION_TYPE = U
NORAD_CAT_ID   = 270235
ELEMENT_SET_NO = 999
REV_AT_EPOCH   = 29723
BSTAR          = .97289467E-3
MEAN_MOTION_DOT = .779E-5
MEAN_MOTION_DDOT = 0

CCSDS_OMM_VERS = 2.0
CREATION_DATE  = 
ORIGINATOR     = 

OBJECT_NAME    = UNKNOWN
OBJECT_ID      = 
CENTER_NAME    = EARTH
REF_FRAME      = TEME
TIME_SYSTEM    = UTC
MEAN_ELEMENT_THEORY = SGP/SGP4

EPOCH          = 2026-01-12T16:58:54.714144
MEAN_MOTION    = 12.95502002
ECCENTRICITY   = .00284054
INCLINATION    = 90.2348
RA_OF_ASC_NODE = 0.0944
ARG_OF_PERICENTER = 214.1056
MEAN_ANOMALY   = 145.8239

EPHEMERIS_TYPE = 0
CLASSIFICATION_TYPE = U
NORAD_CAT_ID   = 270236
ELEMENT_SET_NO = 999
REV_AT_EPOCH   = 28223
BSTAR          = .11349329E-2
MEAN_MOTION_DOT = .328E-5
MEAN_MOTION_DDOT = 0

CCSDS_OMM_VERS = 2.0
CREATION_DATE  = 
ORIGINATOR     = 

OBJECT_NAME    = UNKNOWN
OBJECT_ID      = 
CENTER_NAME    = EARTH
REF_FRAME      = TEME
TIME_SYSTEM    = UTC
MEAN_ELEMENT_THEORY = SGP/SGP4

EPOCH          = 2026-01-11T17:25:15.443616
MEAN_MOTION    = 12.96062472
ECCENTRICITY   = .00255483
INCLINATION    = 90.2439
RA_OF_ASC_NODE = 3.6872
ARG_OF_PERICENTER = 314.6409
MEAN_ANOMALY   = 45.2628

EPHEMERIS_TYPE = 0
CLASSIFICATION_TYPE = U
NORAD_CAT_ID   = 270237
ELEMENT_SET_NO = 999
REV_AT_EPOCH   = 28100
BSTAR          = .20365286E-2
MEAN_MOTION_DOT = .587E-5
MEAN_MOTION_DDOT = 0

CCSDS_OMM_VERS = 2.0
CREATION_DATE  = 
ORIGINATOR     = 

OBJECT_NAME    = UNKNOWN
OBJECT_ID      = 
CENTER_NAME    = EARTH
REF_FRAME      = TEME
TIME_SYSTEM    = UTC
MEAN_ELEMENT_THEORY = SGP/SGP4

EPOCH          = 2026-01-12T11:27:16.857216
MEAN_MOTION    = 12.80786470
ECCENTRICITY   = .01134822
INCLINATION    = 63.5230
RA_OF_ASC_NODE = 91.2058
ARG_OF_PERICENTER = 69.8607
MEAN_ANOMALY   = 291.4554

EPHEMERIS_TYPE = 0
CLASSIFICATION_TYPE = U
NORAD_CAT_ID   = 270238
ELEMENT_SET_NO = 999
REV_AT_EPOCH   = 27841
BSTAR          = .37762958E-3
MEAN_MOTION_DOT = .15E-6
MEAN_MOTION_DDOT = 0

CCSDS_OMM_VERS = 2.0
CREATION_DATE  = 
ORIGINATOR     = 

OBJECT_NAME    = UNKNOWN
OBJECT_ID      = 
CENTER_NAME    = EARTH
REF_FRAME      = TEME
TIME_SYSTEM    = UTC
MEAN_ELEMENT_THEORY = SGP/SGP4

EPOCH          = 2026-01-03T13:36:40.686048
MEAN_MOTION    = 12.27374722
ECCENTRICITY   = .01865754
INCLINATION    = 82.4372
RA_OF_ASC_NODE = 316.1741
ARG_OF_PERICENTER = 318.8766
MEAN_ANOMALY   = 39.8367

EPHEMERIS_TYPE = 0
CLASSIFICATION_TYPE = U
NORAD_CAT_ID   = 270239
ELEMENT_SET_NO = 999
REV_AT_EPOCH   = 26472
BSTAR          = .1962852E-1
MEAN_MOTION_DOT = .2367E-4
MEAN_MOTION_DDOT = 0

CCSDS_OMM_VERS = 2.0
CREATION_DATE  = 
ORIGINATOR     = 

OBJECT_NAME    = UNKNOWN
OBJECT_ID      = 
CENTER_NAME    = EARTH
REF_FRAME      = TEME
TIME_SYSTEM    = UTC
MEAN_ELEMENT_THEORY = SGP/SGP4

EPOCH          = 2026-01-04T07:54:10.460736
MEAN_MOTION    = 12.63693528
ECCENTRICITY   = .01019508
INCLINATION    = 82.4344
RA_OF_ASC_NODE = 230.8196
ARG_OF_PERICENTER = 229.2289
MEAN_ANOMALY   = 129.9922

EPHEMERIS_TYPE = 0
CLASSIFICATION_TYPE = U
NORAD_CAT_ID   = 270240
ELEMENT_SET_NO = 999
REV_AT_EPOCH   = 27128
BSTAR          = .17826906E-2
MEAN_MOTION_DOT = .341E-5
MEAN_MOTION_DDOT = 0

CCSDS_OMM_VERS = 2.0
CREATION_DATE  = 
ORIGINATOR     = 

OBJECT_NAME    = UNKNOWN
OBJECT_ID      = 
CENTER_NAME    = EARTH
REF_FRAME      = TEME
TIME_SYSTEM    = UTC
MEAN_ELEMENT_THEORY = SGP/SGP4

EPOCH          = 2026-01-10T16:52:24.231072
MEAN_MOTION    = 12.94301496
ECCENTRICITY   = .00294312
INCLINATION    = 90.2447
RA_OF_ASC_NODE = 2.7673
ARG_OF_PERICENTER = 306.8923
MEAN_ANOMALY   = 52.9500

EPHEMERIS_TYPE = 0
CLASSIFICATION_TYPE = U
NORAD_CAT_ID   = 270241
ELEMENT_SET_NO = 999
REV_AT_EPOCH   = 28033
BSTAR          = .67537671E-3
MEAN_MOTION_DOT = .195E-5
MEAN_MOTION_DDOT = 0

CCSDS_OMM_VERS = 2.0
CREATION_DATE  = 
ORIGINATOR     = 

OBJECT_NAME    = UNKNOWN
OBJECT_ID      = 
CENTER_NAME    = EARTH
REF_FRAME      = TEME
TIME_SYSTEM    = UTC
MEAN_ELEMENT_THEORY = SGP/SGP4

EPOCH          = 2025-12-30T06:08:30.742368
MEAN_MOTION    = 12.98534519
ECCENTRICITY   = .00455891
INCLINATION    = 90.2365
RA_OF_ASC_NODE = 3.7524
ARG_OF_PERICENTER = 92.1883
MEAN_ANOMALY   = 268.4459

EPHEMERIS_TYPE = 0
CLASSIFICATION_TYPE = U
NORAD_CAT_ID   = 270242
ELEMENT_SET_NO = 999
REV_AT_EPOCH   = 27952
BSTAR          = -.45495673E-3
MEAN_MOTION_DOT = -.127E-5
MEAN_MOTION_DDOT = 0

